LEMUR-2-GREENBERG       
1 42837U 17042N   26068.46200528  .00019778  00000+0  72539-3 0  9997
2 42837  97.3781 249.8007 0009157   4.0119 356.1192 15.27971352473146
STARLINK-30369          
1 57781U 23134L   26068.39817921  .00000027  00000+0  10492-4 0  9991
2 57781  42.9965 195.9954 0000523 285.4922  74.5872 15.27583915139461
